[{"OBJECT_NAME":"STARLINK-5528","OBJECT_ID":"2023-083Q","EPOCH":"2026-03-09T10:27:38.287584","MEAN_MOTION":15.02541661,"ECCENTRICITY":9.055e-5,"INCLINATION":43.0025,"RA_OF_ASC_NODE":83.0319,"ARG_OF_PERICENTER":297.633,"MEAN_ANOMALY":62.442,"EPHEMERIS_TYPE":0,"CLASSIFICATION_TYPE":"U","NORAD_CAT_ID":56890,"ELEMENT_SET_NO":999,"REV_AT_EPOCH":15163,"BSTAR":-8.8718872e-5,"MEAN_MOTION_DOT":-1.402e-5,"MEAN_MOTION_DDOT":0},{"OBJECT_NAME":"CZ-6A DEB","OBJECT_ID":"2022-151CR","EPOCH":"2026-03-09T17:17:08.438784","MEAN_MOTION":15.11778726,"ECCENTRICITY":0.00454354,"INCLINATION":98.5417,"RA_OF_ASC_NODE":160.2576,"ARG_OF_PERICENTER":86.1357,"MEAN_ANOMALY":274.5063,"EPHEMERIS_TYPE":0,"CLASSIFICATION_TYPE":"U","NORAD_CAT_ID":54346,"ELEMENT_SET_NO":999,"REV_AT_EPOCH":17769,"BSTAR":0.0041471579,"MEAN_MOTION_DOT":0.00073134,"MEAN_MOTION_DDOT":0}]
